{"type": "FeatureCollection", "features": [ {"type": "Feature", "properties": {"norad_id": 37834, "name": "INTELSAT 18 (IS-18)", "group": "intelsat", "lat": 0.024903893498612904, "lon": 122.97533540570969, "alt_km": 35793.06083417151, "timestamp": "2025-12-10T14:53:36.790113+00:00", "meta": {"OBJECT_NAME": "INTELSAT 18 (IS-18)", "OBJECT_ID": "2011-056A", "EPOCH": "2025-12-09T19:33:58.959936", "MEAN_MOTION": 1.00271499, "ECCENTRICITY": 0.0002062, "INCLINATION": 0.0181, "RA_OF_ASC_NODE": 348.2925, "ARG_OF_PERICENTER": 277.6414, "MEAN_ANOMALY": 286.358, "EPHEMERIS_TYPE": 0, "CLASSIFICATION_TYPE": "U", "NORAD_CAT_ID": 37834, "ELEMENT_SET_NO": 999, "REV_AT_EPOCH": 5191, "BSTAR": 0, "MEAN_MOTION_DOT": 5.5e-07, "MEAN_MOTION_DDOT": 0}, "tle": {"line1": "1 37834U 11056A   25343.81526574  .00000055  00000+0  00000+0 0  9991", "line2": "2 37834   0.0181 348.2925 0002062 277.6414 286.3580  1.00271499 51912"}}, "geometry": {"type": "Point", "coordinates": [122.97533540570969, 0.024903893498612904]}}, {"type": "Feature", "properties": {"norad_id": 38098, "name": "INTELSAT 22 (IS-22)", "group": "intelsat", "lat": 0.02381737768596403, "lon": 15.142911337330071, "alt_km": 35787.5162985538, "timestamp": "2025-12-10T14:53:36.790123+00:00", "meta": {"OBJECT_NAME": "INTELSAT 22 (IS-22)", "OBJECT_ID": "2012-011A", "EPOCH": "2025-12-10T00:45:38.640672", "MEAN_MOTION": 1.00274467, "ECCENTRICITY": 0.00015748, "INCLINATION": 0.0142, "RA_OF_ASC_NODE": 308.9114, "ARG_OF_PERICENTER": 317.022, "MEAN_ANOMALY": 256.6172, "EPHEMERIS_TYPE": 0, "CLASSIFICATION_TYPE": "U", "NORAD_CAT_ID": 38098, "ELEMENT_SET_NO": 999, "REV_AT_EPOCH": 529, "BSTAR": 0, "MEAN_MOTION_DOT": -5.6e-07, "MEAN_MOTION_DDOT": 0}, "tle": {"line1": "1 38098U 12011A   25344.03169723 -.00000056  00000+0  00000+0 0  9992", "line2": "2 38098   0.0142 308.9114 0001574 317.0220 256.6172  1.00274467  5291"}}, "geometry": {"type": "Point", "coordinates": [15.142911337330071, 0.02381737768596403]}}, {"type": "Feature", "properties": {"norad_id": 38356, "name": "INTELSAT 19 (IS-19)", "group": "intelsat", "lat": 0.021488599924959592, "lon": 108.9843508694792, "alt_km": 35799.798131356314, "timestamp": "2025-12-10T14:53:36.790134+00:00", "meta": {"OBJECT_NAME": "INTELSAT 19 (IS-19)", "OBJECT_ID": "2012-030A", "EPOCH": "2025-12-10T05:51:10.348128", "MEAN_MOTION": 1.00271891, "ECCENTRICITY": 0.00035041, "INCLINATION": 0.0082, "RA_OF_ASC_NODE": 341.9705, "ARG_OF_PERICENTER": 285.0778, "MEAN_ANOMALY": 65.9728, "EPHEMERIS_TYPE": 0, "CLASSIFICATION_TYPE": "U", "NORAD_CAT_ID": 38356, "ELEMENT_SET_NO": 999, "REV_AT_EPOCH": 4855, "BSTAR": 0, "MEAN_MOTION_DOT": -5.3e-07, "MEAN_MOTION_DDOT": 0}, "tle": {"line1": "1 38356U 12030A   25344.24386977 -.00000053  00000+0  00000+0 0  9992", "line2": "2 38356   0.0082 341.9705 0003504 285.0778  65.9728  1.00271891 48553"}}, "geometry": {"type": "Point", "coordinates": [108.9843508694792, 0.021488599924959592]}}, {"type": "Feature", "properties": {"norad_id": 38740, "name": "INTELSAT 20 (IS-20)", "group": "intelsat", "lat": 0.0012755907213867247, "lon": 11.49953323461279, "alt_km": 35797.73553064458, "timestamp": "2025-12-10T14:53:36.790145+00:00", "meta": {"OBJECT_NAME": "INTELSAT 20 (IS-20)", "OBJECT_ID": "2012-043A", "EPOCH": "2025-12-10T00:45:38.640672", "MEAN_MOTION": 1.00270927, "ECCENTRICITY": 0.00027336, "INCLINATION": 0.0094, "RA_OF_ASC_NODE": 92.4172, "ARG_OF_PERICENTER": 93.433, "MEAN_ANOMALY": 333.0845, "EPHEMERIS_TYPE": 0, "CLASSIFICATION_TYPE": "U", "NORAD_CAT_ID": 38740, "ELEMENT_SET_NO": 999, "REV_AT_EPOCH": 4885, "BSTAR": 0, "MEAN_MOTION_DOT": -2.1e-07, "MEAN_MOTION_DDOT": 0}, "tle": {"line1": "1 38740U 12043A   25344.03169723 -.00000021  00000+0  00000+0 0  9993", "line2": "2 38740   0.0094  92.4172 0002733  93.4330 333.0845  1.00270927 48858"}}, "geometry": {"type": "Point", "coordinates": [11.49953323461279, 0.0012755907213867247]}}, {"type": "Feature", "properties": {"norad_id": 38749, "name": "INTELSAT 21 (IS-21)", "group": "intelsat", "lat": -0.01764860594811887, "lon": -115.01468055277245, "alt_km": 35777.78724042414, "timestamp": "2025-12-10T14:53:36.790155+00:00", "meta": {"OBJECT_NAME": "INTELSAT 21 (IS-21)", "OBJECT_ID": "2012-045A", "EPOCH": "2025-12-10T03:59:38.770944", "MEAN_MOTION": 1.00270223, "ECCENTRICITY": 0.00021227, "INCLINATION": 0.0158, "RA_OF_ASC_NODE": 47.3107, "ARG_OF_PERICENTER": 209.6362, "MEAN_ANOMALY": 184.11, "EPHEMERIS_TYPE": 0, "CLASSIFICATION_TYPE": "U", "NORAD_CAT_ID": 38749, "ELEMENT_SET_NO": 999, "REV_AT_EPOCH": 4862, "BSTAR": 0, "MEAN_MOTION_DOT": -2.82e-06, "MEAN_MOTION_DDOT": 0}, "tle": {"line1": "1 38749U 12045A   25344.16642096 -.00000282  00000+0  00000+0 0  9996", "line2": "2 38749   0.0158  47.3107 0002122 209.6362 184.1100  1.00270223 48626"}}, "geometry": {"type": "Point", "coordinates": [-115.01468055277245, -0.01764860594811887]}}, {"type": "Feature", "properties": {"norad_id": 38867, "name": "INTELSAT 23 (IS-23)", "group": "intelsat", "lat": -0.003920663346065308, "lon": -110.06058489979273, "alt_km": 35784.270847347914, "timestamp": "2025-12-10T14:53:36.790167+00:00", "meta": {"OBJECT_NAME": "INTELSAT 23 (IS-23)", "OBJECT_ID": "2012-057A", "EPOCH": "2025-12-09T20:10:10.491744", "MEAN_MOTION": 1.00260311, "ECCENTRICITY": 0.00020064, "INCLINATION": 0.0432, "RA_OF_ASC_NODE": 94.7791, "ARG_OF_PERICENTER": 102.2636, "MEAN_ANOMALY": 131.2856, "EPHEMERIS_TYPE": 0, "CLASSIFICATION_TYPE": "U", "NORAD_CAT_ID": 38867, "ELEMENT_SET_NO": 999, "REV_AT_EPOCH": 4805, "BSTAR": 0, "MEAN_MOTION_DOT": -2.82e-06, "MEAN_MOTION_DDOT": 0}, "tle": {"line1": "1 38867U 12057A   25343.84039921 -.00000282  00000+0  00000+0 0  9991", "line2": "2 38867   0.0432  94.7791 0002006 102.2636 131.2856  1.00260311 48055"}}, "geometry": {"type": "Point", "coordinates": [-110.06058489979273, -0.003920663346065308]}}, {"type": "Feature", "properties": {"norad_id": 39360, "name": "FM-6", "group": "intelsat", "lat": -0.0009731822379493905, "lon": -173.15533826137008, "alt_km": 35774.943826819544, "timestamp": "2025-12-10T14:53:36.790177+00:00", "meta": {"OBJECT_NAME": "FM-6", "OBJECT_ID": "2013-058A", "EPOCH": "2025-12-10T05:54:22.456800", "MEAN_MOTION": 1.00269294, "ECCENTRICITY": 0.00028919, "INCLINATION": 0.0093, "RA_OF_ASC_NODE": 85.6941, "ARG_OF_PERICENTER": 87.9978, "MEAN_ANOMALY": 237.973, "EPHEMERIS_TYPE": 0, "CLASSIFICATION_TYPE": "U", "NORAD_CAT_ID": 39360, "ELEMENT_SET_NO": 999, "REV_AT_EPOCH": 4417, "BSTAR": 0, "MEAN_MOTION_DOT": -1.3e-07, "MEAN_MOTION_DDOT": 0}, "tle": {"line1": "1 39360U 13058A   25344.24609325 -.00000013  00000+0  00000+0 0  9990", "line2": "2 39360   0.0093  85.6941 0002891  87.9978 237.9730  1.00269294 44176"}}, "geometry": {"type": "Point", "coordinates": [-173.15533826137008, -0.0009731822379493905]}}, {"type": "Feature", "properties": {"norad_id": 40271, "name": "INTELSAT 30 (IS-30)", "group": "intelsat", "lat": -0.011722513766669686, "lon": -152.06297070487906, "alt_km": 35790.097494515765, "timestamp": "2025-12-10T14:53:36.790188+00:00", "meta": {"OBJECT_NAME": "INTELSAT 30 (IS-30)", "OBJECT_ID": "2014-062A", "EPOCH": "2025-12-10T01:11:38.648832", "MEAN_MOTION": 1.00269267, "ECCENTRICITY": 0.00013108, "INCLINATION": 0.0157, "RA_OF_ASC_NODE": 21.0097, "ARG_OF_PERICENTER": 60.6078, "MEAN_ANOMALY": 280.2609, "EPHEMERIS_TYPE": 0, "CLASSIFICATION_TYPE": "U", "NORAD_CAT_ID": 40271, "ELEMENT_SET_NO": 999, "REV_AT_EPOCH": 488, "BSTAR": 0, "MEAN_MOTION_DOT": -1.47e-06, "MEAN_MOTION_DDOT": 0}, "tle": {"line1": "1 40271U 14062A   25344.04975288 -.00000147  00000+0  00000+0 0  9999", "line2": "2 40271   0.0157  21.0097 0001310  60.6078 280.2609  1.00269267  4880"}}, "geometry": {"type": "Point", "coordinates": [-152.06297070487906, -0.011722513766669686]}}, {"type": "Feature", "properties": {"norad_id": 40333, "name": "DIRECTV 14", "group": "intelsat", "lat": -0.02897178091431012, "lon": -156.22116830290466, "alt_km": 35784.587615759, "timestamp": "2025-12-10T14:53:36.790198+00:00", "meta": {"OBJECT_NAME": "DIRECTV 14", "OBJECT_ID": "2014-078B", "EPOCH": "2025-12-10T07:31:25.076352", "MEAN_MOTION": 1.00271422, "ECCENTRICITY": 3.892e-05, "INCLINATION": 0.0194, "RA_OF_ASC_NODE": 330.9645, "ARG_OF_PERICENTER": 222.3436, "MEAN_ANOMALY": 259.6222, "EPHEMERIS_TYPE": 0, "CLASSIFICATION_TYPE": "U", "NORAD_CAT_ID": 40333, "ELEMENT_SET_NO": 999, "REV_AT_EPOCH": 4015, "BSTAR": 0, "MEAN_MOTION_DOT": -1.22e-06, "MEAN_MOTION_DDOT": 0}, "tle": {"line1": "1 40333U 14078B   25344.31348468 -.00000122  00000+0  00000+0 0  9992", "line2": "2 40333   0.0194 330.9645 0000389 222.3436 259.6222  1.00271422 40158"}}, "geometry": {"type": "Point", "coordinates": [-156.22116830290466, -0.02897178091431012]}}, {"type": "Feature", "properties": {"norad_id": 40663, "name": "DIRECTV 15", "group": "intelsat", "lat": 0.02105590825644138, "lon": -159.88672883446566, "alt_km": 35787.08694260638, "timestamp": "2025-12-10T14:53:36.790209+00:00", "meta": {"OBJECT_NAME": "DIRECTV 15", "OBJECT_ID": "2015-026A", "EPOCH": "2025-12-10T04:31:38.803584", "MEAN_MOTION": 1.00269219, "ECCENTRICITY": 3.06e-05, "INCLINATION": 0.0409, "RA_OF_ASC_NODE": 83.3518, "ARG_OF_PERICENTER": 219.604, "MEAN_ANOMALY": 101.2507, "EPHEMERIS_TYPE": 0, "CLASSIFICATION_TYPE": "U", "NORAD_CAT_ID": 40663, "ELEMENT_SET_NO": 999, "REV_AT_EPOCH": 3856, "BSTAR": 0, "MEAN_MOTION_DOT": -9.9e-07, "MEAN_MOTION_DDOT": 0}, "tle": {"line1": "1 40663U 15026A   25344.18864356 -.00000099  00000+0  00000+0 0  9999", "line2": "2 40663   0.0409  83.3518 0000306 219.6040 101.2507  1.00269219 38561"}}, "geometry": {"type": "Point", "coordinates": [-159.88672883446566, 0.02105590825644138]}}]}